[{"OBJECT_NAME":"YAOGAN-9 01C","OBJECT_ID":"2010-009C","EPOCH":"2026-03-09T21:34:27.608160","MEAN_MOTION":13.45692023,"ECCENTRICITY":0.05305817,"INCLINATION":63.3649,"RA_OF_ASC_NODE":255.2819,"ARG_OF_PERICENTER":20.4525,"MEAN_ANOMALY":341.6898,"EPHEMERIS_TYPE":0,"CLASSIFICATION_TYPE":"U","NORAD_CAT_ID":36415,"ELEMENT_SET_NO":999,"REV_AT_EPOCH":78654,"BSTAR":6.9215105e-5,"MEAN_MOTION_DOT":6.0e-8,"MEAN_MOTION_DDOT":0},{"OBJECT_NAME":"SL-8 DEB","OBJECT_ID":"1991-009CE","EPOCH":"2026-03-08T06:29:02.662080","MEAN_MOTION":12.19264878,"ECCENTRICITY":0.01374179,"INCLINATION":73.9505,"RA_OF_ASC_NODE":255.1053,"ARG_OF_PERICENTER":214.5383,"MEAN_ANOMALY":331.0065,"EPHEMERIS_TYPE":0,"CLASSIFICATION_TYPE":"U","NORAD_CAT_ID":21943,"ELEMENT_SET_NO":999,"REV_AT_EPOCH":55771,"BSTAR":0.00025782702,"MEAN_MOTION_DOT":1.2e-7,"MEAN_MOTION_DDOT":0}]
